ONEWEB-0094             
1 45450U 20020AC  25207.13540795  .00000113  00000+0  25826-3 0  9992
2 45450  87.9039  70.7330 0001776  85.5237 274.6098 13.17650447263372
ONEWEB-0082             
1 45452U 20020AE  25207.39338560 -.00000363  00000+0 -10598-2 0  9995
2 45452  87.8818  85.9669 0001982  79.4289 280.7062 13.11417396259988
ONEWEB-0050             
1 45453U 20020AF  25207.18125751  .00003366  00000+0  33949-3 0  9999
2 45453  87.9985 285.4616 0005023  81.4236 278.7562 14.90843761291849
ONEWEB-0034             
1 45454U 20020AG  25207.18569896  .00000597  00000+0  16479-2 0  9993
2 45454  87.8819  86.0282 0001790  78.7031 281.4298 13.11418779259871
ONEWEB-0060             
1 45455U 20020AH  25207.38535007 -.00000501  00000+0 -14556-2 0  9994
2 45455  87.8814  86.0176 0001646  80.6731 279.4583 13.11151276259856
ONEWEB-0086             
1 45456U 20020AJ  25207.21198658  .00000036  00000+0  64703-4 0  9996
2 45456  87.8815  86.0207 0002521  73.7421 286.3984 13.11413688259888
ONEWEB-0088             
1 45457U 20020AK  25207.18993802  .00000588  00000+0  16220-2 0  9998
2 45457  87.8809  85.9726 0001800  82.8889 277.2444 13.11417382259823
